STARLINK-1007_new
1 14713C 19074A   21326.16821836 -.00014244  00000-0 -95455-3 0  3261
2 14713  53.0498  28.0178 0001092  59.9046  25.3313 15.06406980    18
STARLINK-1007_old
1 24713C 19074A   21325.13800352  .00003449  00000-0  23106-3 0  3253
2 24713  53.0504  32.6430 0001007  59.8267 195.3911 15.06402827    16
